start=new Date('2023-03-15T00:00:00.000Z').valueOf();
sats=[{"PERIAPSIS":"538.949","MEAN_ANOMALY":"263.3609","FILE":"3860373","INCLINATION":"53.2158","PERIOD":"95.439","REF_FRAME":"TEME","EPOCH":"2023-03-14T00:35:16.772352","APOAPSIS":"540.638","ECCENTRICITY":"0.00012210","OBJECT_TYPE":"PAYLOAD","NORAD_CAT_ID":"53405","MEAN_MOTION_DDOT":"0.0000000000000","TLE_LINE1":"1 53405U 22097T   23073.02449968  .00018132  00000-0  11549-2 0  9991","CLASSIFICATION_TYPE":"U","DECAY_DATE":null,"RCS_SIZE":"LARGE","TLE_LINE2":"2 53405  53.2158 344.7988 0001221  96.7522 263.3609 15.08824277 33710","OBJECT_NAME":"STARLINK-4510","COUNTRY_CODE":"US","GP_ID":"228076393","MEAN_ELEMENT_THEORY":"SGP4","ELEMENT_SET_NO":"999","ARG_OF_PERICENTER":"96.7522","SITE":"AFETR","MEAN_MOTION_DOT":"0.00018132","CENTER_NAME":"EARTH","RA_OF_ASC_NODE":"344.7988","LAUNCH_DATE":"2022-08-10","SEMIMAJOR_AXIS":"6917.928","REV_AT_EPOCH":"3371","EPHEMERIS_TYPE":"0","MEAN_MOTION":"15.08824277","OBJECT_ID":"2022-097T","TIME_SYSTEM":"UTC","BSTAR":"0.00115490000000"},{"MEAN_MOTION":"15.08825216","BSTAR":"0.00082712000000","TIME_SYSTEM":"UTC","OBJECT_ID":"2022-097U","EPHEMERIS_TYPE":"0","REV_AT_EPOCH":"3384","SEMIMAJOR_AXIS":"6917.926","LAUNCH_DATE":"2022-08-10","CENTER_NAME":"EARTH","MEAN_MOTION_DOT":"0.00012895","RA_OF_ASC_NODE":"334.9114","SITE":"AFETR","TLE_LINE2":"2 53406  53.2177 334.9114 0001404 110.3849 249.7294 15.08825216 33848","RCS_SIZE":"LARGE","MEAN_ELEMENT_THEORY":"SGP4","GP_ID":"228077643","COUNTRY_CODE":"US","ELEMENT_SET_NO":"999","ARG_OF_PERICENTER":"110.3849","OBJECT_NAME":"STARLINK-4533","CLASSIFICATION_TYPE":"U","TLE_LINE1":"1 53406U 22097U   23072.99965375  .00012895  00000-0  82712-3 0  9993","DECAY_DATE":null,"NORAD_CAT_ID":"53406","OBJECT_TYPE":"PAYLOAD","ECCENTRICITY":"0.00014040","MEAN_MOTION_DDOT":"0.0000000000000","APOAPSIS":"540.762","REF_FRAME":"TEME","EPOCH":"2023-03-13T23:59:30.084000","PERIOD":"95.438","PERIAPSIS":"538.819","FILE":"3860373","MEAN_ANOMALY":"249.7294","INCLINATION":"53.2177"},{"SITE":"AFETR","OBJECT_NAME":"STARLINK-4537","GP_ID":"228077394","COUNTRY_CODE":"US","ARG_OF_PERICENTER":"80.8025","ELEMENT_SET_NO":"999","MEAN_ELEMENT_THEORY":"SGP4","RCS_SIZE":"LARGE","TLE_LINE2":"2 53407  53.2174 324.8097 0000881  80.8025 279.3067 15.08836006 33991","LAUNCH_DATE":"2022-08-10","SEMIMAJOR_AXIS":"6917.893","RA_OF_ASC_NODE":"324.8097","MEAN_MOTION_DOT":"-0.00003070","CENTER_NAME":"EARTH","REV_AT_EPOCH":"3399","EPHEMERIS_TYPE":"0","OBJECT_ID":"2022-097V","TIME_SYSTEM":"UTC","BSTAR":"-0.00017492000000","MEAN_MOTION":"15.08836006","PERIOD":"95.438","MEAN_ANOMALY":"279.3067","FILE":"3860373","INCLINATION":"53.2174","PERIAPSIS":"539.148","APOAPSIS":"540.367","REF_FRAME":"TEME","EPOCH":"2023-03-14T01:46:51.722400","MEAN_MOTION_DDOT":"0.0000000000000","ECCENTRICITY":"0.00008810","OBJECT_TYPE":"PAYLOAD","NORAD_CAT_ID":"53407","DECAY_DATE":null,"TLE_LINE1":"1 53407U 22097V   23073.07420975 -.00003070  00000-0 -17492-3 0  9996","CLASSIFICATION_TYPE":"U"},{"PERIAPSIS":"538.850","FILE":"3860373","MEAN_ANOMALY":"257.0195","INCLINATION":"53.2183","PERIOD":"95.438","EPOCH":"2023-03-14T03:26:10.209408","REF_FRAME":"TEME","APOAPSIS":"540.711","NORAD_CAT_ID":"53408","OBJECT_TYPE":"PAYLOAD","ECCENTRICITY":"0.00013450","MEAN_MOTION_DDOT":"0.0000000000000","CLASSIFICATION_TYPE":"U","TLE_LINE1":"1 53408U 22097W   23073.14317372  .00014473  00000-0  92582-3 0  9991","DECAY_DATE":null,"TLE_LINE2":"2 53408  53.2183 334.2616 0001345 103.0947 257.0195 15.08828562 33860","RCS_SIZE":"LARGE","GP_ID":"228076642","COUNTRY_CODE":"US","ELEMENT_SET_NO":"999","ARG_OF_PERICENTER":"103.0947","MEAN_ELEMENT_THEORY":"SGP4","OBJECT_NAME":"STARLINK-4491","SITE":"AFETR","CENTER_NAME":"EARTH","MEAN_MOTION_DOT":"0.00014473","RA_OF_ASC_NODE":"334.2616","SEMIMAJOR_AXIS":"6917.915","LAUNCH_DATE":"2022-08-10","EPHEMERIS_TYPE":"0","REV_AT_EPOCH":"3386","MEAN_MOTION":"15.08828562","BSTAR":"0.00092582000000","OBJECT_ID":"2022-097W","TIME_SYSTEM":"UTC"},{"PERIOD":"95.437","INCLINATION":"53.2165","FILE":"3860643","MEAN_ANOMALY":"269.3956","PERIAPSIS":"539.007","APOAPSIS":"540.464","REF_FRAME":"TEME","EPOCH":"2023-03-14T17:35:23.749728","MEAN_MOTION_DDOT":"0.0000000000000","NORAD_CAT_ID":"53409","OBJECT_TYPE":"PAYLOAD","ECCENTRICITY":"0.00010530","DECAY_DATE":null,"CLASSIFICATION_TYPE":"U","TLE_LINE1":"1 53409U 22097X   23073.73291377  .00001228  00000-0  95222-4 0  9992","SITE":"AFETR","COUNTRY_CODE":"US","GP_ID":"228109837","ELEMENT_SET_NO":"999","MEAN_ELEMENT_THEORY":"SGP4","ARG_OF_PERICENTER":"90.7157","OBJECT_NAME":"STARLINK-4490","TLE_LINE2":"2 53409  53.2165 321.8114 0001053  90.7157 269.3956 15.08843205 34095","RCS_SIZE":"LARGE","LAUNCH_DATE":"2022-08-10","SEMIMAJOR_AXIS":"6917.871","RA_OF_ASC_NODE":"321.8114","CENTER_NAME":"EARTH","MEAN_MOTION_DOT":"0.00001228","EPHEMERIS_TYPE":"0","REV_AT_EPOCH":"3409","BSTAR":"0.00009522200000","TIME_SYSTEM":"UTC","OBJECT_ID":"2022-097X","MEAN_MOTION":"15.08843205"},{"SITE":"AFETR","RCS_SIZE":"LARGE","TLE_LINE2":"2 53410  53.2169 334.5724 0001449 114.1266 245.9878 15.08834466 33855","OBJECT_NAME":"STARLINK-4492","GP_ID":"228077144","ELEMENT_SET_NO":"999","COUNTRY_CODE":"US","MEAN_ELEMENT_THEORY":"SGP4","ARG_OF_PERICENTER":"114.1266","SEMIMAJOR_AXIS":"6917.897","LAUNCH_DATE":"2022-08-10","MEAN_MOTION_DOT":"0.00005813","CENTER_NAME":"EARTH","RA_OF_ASC_NODE":"334.5724","REV_AT_EPOCH":"3385","EPHEMERIS_TYPE":"0","MEAN_MOTION":"15.08834466","OBJECT_ID":"2022-097Y","TIME_SYSTEM":"UTC","BSTAR":"0.00038310000000","PERIOD":"95.438","PERIAPSIS":"538.760","FILE":"3860373","INCLINATION":"53.2169","MEAN_ANOMALY":"245.9878","APOAPSIS":"540.765","EPOCH":"2023-03-14T01:45:29.064384","REF_FRAME":"TEME","OBJECT_TYPE":"PAYLOAD","ECCENTRICITY":"0.00014490","NORAD_CAT_ID":"53410","MEAN_MOTION_DDOT":"0.0000000000000","TLE_LINE1":"1 53410U 22097Y   23073.07325306  .00005813  00000-0  38310-3 0  9999","CLASSIFICATION_TYPE":"U","DECAY_DATE":null},{"EPHEMERIS_TYPE":"0","REV_AT_EPOCH":"3386","BSTAR":"0.00071168000000","OBJECT_ID":"2022-097Z","TIME_SYSTEM":"UTC","MEAN_MOTION":"15.08832490","ARG_OF_PERICENTER":"79.5498","GP_ID":"228077894","COUNTRY_CODE":"US","ELEMENT_SET_NO":"999","MEAN_ELEMENT_THEORY":"SGP4","OBJECT_NAME":"STARLINK-4497","TLE_LINE2":"2 53411  53.2184 334.2446 0001584  79.5498 280.5673 15.08832490 33866","RCS_SIZE":"LARGE","SITE":"AFETR","RA_OF_ASC_NODE":"334.2446","CENTER_NAME":"EARTH","MEAN_MOTION_DOT":"0.00011054","SEMIMAJOR_AXIS":"6917.903","LAUNCH_DATE":"2022-08-10","MEAN_MOTION_DDOT":"0.0000000000000","NORAD_CAT_ID":"53411","OBJECT_TYPE":"PAYLOAD","ECCENTRICITY":"0.00015840","DECAY_DATE":null,"CLASSIFICATION_TYPE":"U","TLE_LINE1":"1 53411U 22097Z   23073.14685843  .00011054  00000-0  71168-3 0  9995","MEAN_ANOMALY":"280.5673","FILE":"3860373","INCLINATION":"53.2184","PERIAPSIS":"538.673","PERIOD":"95.438","EPOCH":"2023-03-14T03:31:28.568352","REF_FRAME":"TEME","APOAPSIS":"540.864"},{"APOAPSIS":"540.873","REF_FRAME":"TEME","EPOCH":"2023-03-14T03:04:57.868320","PERIOD":"95.438","MEAN_ANOMALY":"258.2767","FILE":"3860373","INCLINATION":"53.2174","PERIAPSIS":"538.620","DECAY_DATE":null,"CLASSIFICATION_TYPE":"U","TLE_LINE1":"1 53412U 22097AA  23073.12844755 -.00002001  00000-0 -10765-3 0  9993","MEAN_MOTION_DDOT":"0.0000000000000","NORAD_CAT_ID":"53412","ECCENTRICITY":"0.00016280","OBJECT_TYPE":"PAYLOAD","SEMIMAJOR_AXIS":"6917.882","LAUNCH_DATE":"2022-08-10","RA_OF_ASC_NODE":"334.3262","MEAN_MOTION_DOT":"-0.00002001","CENTER_NAME":"EARTH","SITE":"AFETR","GP_ID":"228076144","ELEMENT_SET_NO":"999","COUNTRY_CODE":"US","ARG_OF_PERICENTER":"101.8408","MEAN_ELEMENT_THEORY":"SGP4","OBJECT_NAME":"STARLINK-4496","RCS_SIZE":"LARGE","TLE_LINE2":"2 53412  53.2174 334.3262 0001628 101.8408 258.2767 15.08839612 33861","BSTAR":"-0.00010765000000","TIME_SYSTEM":"UTC","OBJECT_ID":"2022-097AA","MEAN_MOTION":"15.08839612","EPHEMERIS_TYPE":"0","REV_AT_EPOCH":"3386"},{"OBJECT_TYPE":"PAYLOAD","ECCENTRICITY":"0.00016540","NORAD_CAT_ID":"53413","MEAN_MOTION_DDOT":"0.0000000000000","TLE_LINE1":"1 53413U 22097AB  23073.79820583 -.00000351  00000-0 -39563-5 0  9995","CLASSIFICATION_TYPE":"U","DECAY_DATE":null,"PERIAPSIS":"538.573","MEAN_ANOMALY":"211.0769","FILE":"3860643","INCLINATION":"53.2156","PERIOD":"95.437","REF_FRAME":"TEME","EPOCH":"2023-03-14T19:09:24.983712","APOAPSIS":"540.861","REV_AT_EPOCH":"3396","EPHEMERIS_TYPE":"0","MEAN_MOTION":"15.08849247","TIME_SYSTEM":"UTC","OBJECT_ID":"2022-097AB","BSTAR":"-0.00000395630000","RCS_SIZE":"LARGE","TLE_LINE2":"2 53413  53.2156 331.3199 0001654 149.0321 211.0769 15.08849247 33960","OBJECT_NAME":"STARLINK-4500","GP_ID":"228109338","ELEMENT_SET_NO":"999","COUNTRY_CODE":"US","ARG_OF_PERICENTER":"149.0321","MEAN_ELEMENT_THEORY":"SGP4","SITE":"AFETR","MEAN_MOTION_DOT":"-0.00000351","CENTER_NAME":"EARTH","RA_OF_ASC_NODE":"331.3199","LAUNCH_DATE":"2022-08-10","SEMIMAJOR_AXIS":"6917.852"},{"TLE_LINE1":"1 53414U 22097AC  23073.45597455 -.00001516  00000-0 -77138-4 0  9991","CLASSIFICATION_TYPE":"U","DECAY_DATE":null,"OBJECT_TYPE":"PAYLOAD","ECCENTRICITY":"0.00031940","NORAD_CAT_ID":"53414","MEAN_MOTION_DDOT":"0.0000000000000","APOAPSIS":"542.013","EPOCH":"2023-03-14T10:56:36.201120","REF_FRAME":"TEME","PERIOD":"95.439","PERIAPSIS":"537.594","FILE":"3860373","MEAN_ANOMALY":"332.0098","INCLINATION":"53.2197","MEAN_MOTION":"15.08821029","OBJECT_ID":"2022-097AC","TIME_SYSTEM":"UTC","BSTAR":"-0.00007713800000","REV_AT_EPOCH":"3390","EPHEMERIS_TYPE":"0","LAUNCH_DATE":"2022-08-10","SEMIMAJOR_AXIS":"6917.938","MEAN_MOTION_DOT":"-0.00001516","CENTER_NAME":"EARTH","RA_OF_ASC_NODE":"332.8662","SITE":"AFETR","TLE_LINE2":"2 53414  53.2197 332.8662 0003194  28.1066 332.0098 15.08821029 33902","RCS_SIZE":"LARGE","OBJECT_NAME":"STARLINK-4304","ARG_OF_PERICENTER":"28.1066","GP_ID":"228077644","COUNTRY_CODE":"US","ELEMENT_SET_NO":"999","MEAN_ELEMENT_THEORY":"SGP4"}];
